QIANFAN-81              
1 63167U 25046J   25339.30488759  .00000168  00000+0  24046-3 0  9999
2 63167  88.9756 320.6418 0015805 136.5835 223.6564 13.50999790 46484
QIANFAN-82              
1 63168U 25046K   25339.26472727  .00000118  00000+0  16342-3 0  9998
2 63168  88.9756 320.6899 0013740 143.1782 217.0315 13.50973366 46469
QIANFAN-83              
1 63169U 25046L   25339.27871699  .00000148  00000+0  17577-3 0  9995
2 63169  88.9756 320.4794 0015421 130.4070 229.8436 13.61971585 46580
QIANFAN-84              
1 63170U 25046M   25339.29259228  .00000031  00000+0  29062-4 0  9991
2 63170  88.9755 320.8197 0016780 141.0007 219.2358 13.50984908 46395
QIANFAN-85              
1 63171U 25046N   25339.28929331  .00000151  00000+0  21548-3 0  9993
2 63171  88.9755 320.6918 0014124 142.1464 218.0683 13.50973742 46464
QIANFAN-86              
1 63172U 25046P   25339.29762092  .00000135  00000+0  19040-3 0  9990
2 63172  88.9757 320.5529 0011898 144.8844 215.3094 13.50973667 46541
QIANFAN-87              
1 63173U 25046Q   25339.26894013  .00000076  00000+0  98962-4 0  9992
2 63173  88.9753 320.6678 0012680 141.0733 219.1334 13.50971924 46475
QIANFAN-88              
1 63174U 25046R   25339.28530337  .00000132  00000+0  18608-3 0  9992
2 63174  88.9756 320.6205 0012846 148.6391 211.5529 13.50978234 46509
